[
    {
        "Altitude(m)": 607910.9943768367,
        "Argument of Periapsis(deg)": 0.0,
        "Eccentricity": 0.0,
        "Inclination(deg)": 60.0,
        "Latitude(deg)": -14.292861565152428,
        "Longitude(deg)": 48.44267197737509,
        "Mean Anomaly(deg)": -163.63639999999998,
        "RAAN(deg)": 320.0,
        "Satellite Name": "Test1 1420",
        "Satellite Number": 1420,
        "Semi-Major Axis(m)": 6980739.136638005,
        "Time(s)": 0
    },
    {
        "Altitude(m)": 608060.2273826029,
        "Argument of Periapsis(deg)": 0.00010418945913296404,
        "Eccentricity": 0.0,
        "Inclination(deg)": 60.0,
        "Latitude(deg)": -14.826522483568233,
        "Longitude(deg)": 48.73128226266364,
        "Mean Anomaly(deg)": -163.01629385453822,
        "RAAN(deg)": 319.9995799508602,
        "Satellite Name": "Test1 1420",
        "Satellite Number": 1420,
        "Semi-Major Axis(m)": 6980739.136638005,
        "Time(s)": 10
    },
    {
        "Altitude(m)": 608211.8905943027,
        "Argument of Periapsis(deg)": 0.0002083789182659281,
        "Eccentricity": 0.0,
        "Inclination(deg)": 60.0,
        "Latitude(deg)": -15.359667182257494,
        "Longitude(deg)": 49.02150133255557,
        "Mean Anomaly(deg)": -162.39618770907637,
        "RAAN(deg)": 319.9991599017205,
        "Satellite Name": "Test1 1420",
        "Satellite Number": 1420,
        "Semi-Major Axis(m)": 6980739.136638005,
        "Time(s)": 20
    },
    {
        "Altitude(m)": 608365.9359307743,
        "Argument of Periapsis(deg)": 0.00031256837739889213,
        "Eccentricity": 0.0,
        "Inclination(deg)": 60.0,
        "Latitude(deg)": -15.892274452010824,
        "Longitude(deg)": 49.31339665443757,
        "Mean Anomaly(deg)": -161.77608156361455,
        "RAAN(deg)": 319.9987398525808,
        "Satellite Name": "Test1 1420",
        "Satellite Number": 1420,
        "Semi-Major Axis(m)": 6980739.136638005,
        "Time(s)": 30
    },
    {
        "Altitude(m)": 608522.3141133132,
        "Argument of Periapsis(deg)": 0.0004167578365318562,
        "Eccentricity": 0.0,
        "Inclination(deg)": 60.0,
        "Latitude(deg)": -16.42432275135936,
        "Longitude(deg)": 49.6070372146975,
        "Mean Anomaly(deg)": -161.1559754181527,
        "RAAN(deg)": 319.998319803441,
        "Satellite Name": "Test1 1420",
        "Satellite Number": 1420,
        "Semi-Major Axis(m)": 6980739.136638005,
        "Time(s)": 40
    },
    {
        "Altitude(m)": 608680.974686994,
        "Argument of Periapsis(deg)": 0.0005209472956648203,
        "Eccentricity": 0.0,
        "Inclination(deg)": 60.0,
        "Latitude(deg)": -16.955790190555234,
        "Longitude(deg)": 49.90249255405372,
        "Mean Anomaly(deg)": -160.53586927269086,
        "RAAN(deg)": 319.9978997543013,
        "Satellite Name": "Test1 1420",
        "Satellite Number": 1420,
        "Semi-Major Axis(m)": 6980739.136638005,
        "Time(s)": 50
    },
    {
        "Altitude(m)": 608841.866042516,
        "Argument of Periapsis(deg)": 0.0006251367547977843,
        "Eccentricity": 0.0,
        "Inclination(deg)": 60.0,
        "Latitude(deg)": -17.486654515069954,
        "Longitude(deg)": 50.199833316594415,
        "Mean Anomaly(deg)": -159.915763127229,
        "RAAN(deg)": 319.99747970516154,
        "Satellite Name": "Test1 1420",
        "Satellite Number": 1420,
        "Semi-Major Axis(m)": 6980739.136638005,
        "Time(s)": 60
    },
    {
        "Altitude(m)": 609004.9354386507,
        "Argument of Periapsis(deg)": 0.0007293262139307483,
        "Eccentricity": 0.0,
        "Inclination(deg)": 60.0,
        "Latitude(deg)": -18.016893088589033,
        "Longitude(deg)": 50.49913179968004,
        "Mean Anomaly(deg)": -159.2956569817672,
        "RAAN(deg)": 319.9970596560218,
        "Satellite Name": "Test1 1420",
        "Satellite Number": 1420,
        "Semi-Major Axis(m)": 6980739.136638005,
        "Time(s)": 70
    },
    {
        "Altitude(m)": 609170.1290251695,
        "Argument of Periapsis(deg)": 0.0008335156730637124,
        "Eccentricity": 0.0,
        "Inclination(deg)": 60.0,
        "Latitude(deg)": -18.54648287548143,
        "Longitude(deg)": 50.80046099185901,
        "Mean Anomaly(deg)": -158.67555083630535,
        "RAAN(deg)": 319.99663960688207,
        "Satellite Name": "Test1 1420",
        "Satellite Number": 1420,
        "Semi-Major Axis(m)": 6980739.136638005,
        "Time(s)": 80
    },
    {
        "Altitude(m)": 609337.3918663603,
        "Argument of Periapsis(deg)": 0.0009377051321966765,
        "Eccentricity": 0.0,
        "Inclination(deg)": 60.0,
        "Latitude(deg)": -19.075400422714633,
        "Longitude(deg)": 51.103895124562946,
        "Mean Anomaly(deg)": -158.0554446908436,
        "RAAN(deg)": 319.9962195577423,
        "Satellite Name": "Test1 1420",
        "Satellite Number": 1420,
        "Semi-Major Axis(m)": 6980739.136638005,
        "Time(s)": 90
    },
    {
        "Altitude(m)": 609506.6679650088,
        "Argument of Periapsis(deg)": 0.0010418945913296407,
        "Eccentricity": 0.0,
        "Inclination(deg)": 60.0,
        "Latitude(deg)": -19.603621841194006,
        "Longitude(deg)": 51.409510224731825,
        "Mean Anomaly(deg)": -157.43533854538174,
        "RAAN(deg)": 319.99579950860254,
        "Satellite Name": "Test1 1420",
        "Satellite Number": 1420,
        "Semi-Major Axis(m)": 6980739.136638005,
        "Time(s)": 100
    },
    {
        "Altitude(m)": 609677.9002869282,
        "Argument of Periapsis(deg)": 0.0011460840504626045,
        "Eccentricity": 0.0,
        "Inclination(deg)": 60.0,
        "Latitude(deg)": -20.13112278649939,
        "Longitude(deg)": 51.71738315551197,
        "Mean Anomaly(deg)": -156.81523239991995,
        "RAAN(deg)": 319.99537945946287,
        "Satellite Name": "Test1 1420",
        "Satellite Number": 1420,
        "Semi-Major Axis(m)": 6980739.136638005,
        "Time(s)": 110
    },
    {
        "Altitude(m)": 609851.0307859299,
        "Argument of Periapsis(deg)": 0.0012502735095955685,
        "Eccentricity": 0.0,
        "Inclination(deg)": 60.0,
        "Latitude(deg)": -20.657878438991848,
        "Longitude(deg)": 52.02759217079203,
        "Mean Anomaly(deg)": -156.1951262544581,
        "RAAN(deg)": 319.9949594103231,
        "Satellite Name": "Test1 1420",
        "Satellite Number": 1420,
        "Semi-Major Axis(m)": 6980739.136638005,
        "Time(s)": 120
    },
    {
        "Altitude(m)": 610026.0004293248,
        "Argument of Periapsis(deg)": 0.0013544629687285324,
        "Eccentricity": 0.0,
        "Inclination(deg)": 60.0,
        "Latitude(deg)": -21.18386348326176,
        "Longitude(deg)": 52.340217470716915,
        "Mean Anomaly(deg)": -155.57502010899623,
        "RAAN(deg)": 319.99453936118334,
        "Satellite Name": "Test1 1420",
        "Satellite Number": 1420,
        "Semi-Major Axis(m)": 6980739.136638005,
        "Time(s)": 130
    },
    {
        "Altitude(m)": 610202.7492238566,
        "Argument of Periapsis(deg)": 0.0014586524278614966,
        "Eccentricity": 0.0,
        "Inclination(deg)": 60.0,
        "Latitude(deg)": -21.709052086894374,
        "Longitude(deg)": 52.655340245320225,
        "Mean Anomaly(deg)": -154.95491396353438,
        "RAAN(deg)": 319.9941193120436,
        "Satellite Name": "Test1 1420",
        "Satellite Number": 1420,
        "Semi-Major Axis(m)": 6980739.136638005,
        "Time(s)": 140
    },
    {
        "Altitude(m)": 610381.2162420704,
        "Argument of Periapsis(deg)": 0.0015628418869944607,
        "Eccentricity": 0.0,
        "Inclination(deg)": 60.0,
        "Latitude(deg)": -22.233417878518058,
        "Longitude(deg)": 52.97304323202966,
        "Mean Anomaly(deg)": -154.3348078180726,
        "RAAN(deg)": 319.9936992629039,
        "Satellite Name": "Test1 1420",
        "Satellite Number": 1420,
        "Semi-Major Axis(m)": 6980739.136638005,
        "Time(s)": 150
    },
    {
        "Altitude(m)": 610561.3396491713,
        "Argument of Periapsis(deg)": 0.0016670313461274247,
        "Eccentricity": 0.0,
        "Inclination(deg)": 60.0,
        "Latitude(deg)": -22.75693392510819,
        "Longitude(deg)": 53.29341127417778,
        "Mean Anomaly(deg)": -153.71470167261074,
        "RAAN(deg)": 319.99327921376414,
        "Satellite Name": "Test1 1420",
        "Satellite Number": 1420,
        "Semi-Major Axis(m)": 6980739.136638005,
        "Time(s)": 160
    },
    {
        "Altitude(m)": 610743.056730254,
        "Argument of Periapsis(deg)": 0.0017712208052603888,
        "Eccentricity": 0.0,
        "Inclination(deg)": 60.0,
        "Latitude(deg)": -23.279572708517236,
        "Longitude(deg)": 53.61653036764975,
        "Mean Anomaly(deg)": -153.09459552714887,
        "RAAN(deg)": 319.99285916462435,
        "Satellite Name": "Test1 1420",
        "Satellite Number": 1420,
        "Semi-Major Axis(m)": 6980739.136638005,
        "Time(s)": 170
    },
    {
        "Altitude(m)": 610926.3039179652,
        "Argument of Periapsis(deg)": 0.001875410264393353,
        "Eccentricity": 0.0,
        "Inclination(deg)": 60.0,
        "Latitude(deg)": -23.80130610119608,
        "Longitude(deg)": 53.942488221410095,
        "Mean Anomaly(deg)": -152.47448938168702,
        "RAAN(deg)": 319.9924391154846,
        "Satellite Name": "Test1 1420",
        "Satellite Number": 1420,
        "Semi-Major Axis(m)": 6980739.136638005,
        "Time(s)": 180
    },
    {
        "Altitude(m)": 611111.0168205575,
        "Argument of Periapsis(deg)": 0.0019795997235263173,
        "Eccentricity": 0.0,
        "Inclination(deg)": 60.0,
        "Latitude(deg)": -24.322105341075314,
        "Longitude(deg)": 54.271374819030356,
        "Mean Anomaly(deg)": -151.8543832362252,
        "RAAN(deg)": 319.99201906634494,
        "Satellite Name": "Test1 1420",
        "Satellite Number": 1420,
        "Semi-Major Axis(m)": 6980739.136638005,
        "Time(s)": 190
    }
]